KUIPER-00071            
1 64818U 25151C   25308.52333200  .00016089  00000+0  21317-2 0  9996
2 64818  51.9066 136.5594 0007898 172.5641 187.5440 14.79970082 16730
KUIPER-00072            
1 64819U 25151D   25308.83336806  .00005199  00000+0  56436-3 0  9997
2 64819  51.8954 115.4749 0003782 161.1173 328.7255 14.89549227  5652
KUIPER-00073            
1 64820U 25151E   25308.82663822  .00003236  00000+0  45208-3 0  9994
2 64820  51.8977 135.2098 0013509 195.0801 164.9760 14.80028598 17960
KUIPER-00074            
1 64821U 25151F   25308.77303964  .00003099  00000+0  43493-3 0  9998
2 64821  51.8991 122.9623 0012443 210.4174 149.6068 14.79955922 16941
KUIPER-00075            
1 64822U 25151G   25308.74479354  .00043370  00000+0  10795-2 0  9997
2 64822  51.8741 108.5658 0005508 178.1877 181.9132 15.39818864 17141
KUIPER-00076            
1 64823U 25151H   25308.77044057  .00003644  00000+0  50679-3 0  9995
2 64823  51.8985 125.4732 0004031 203.9802 156.0973 14.79934432 16911
KUIPER-00077            
1 64824U 25151J   25308.56251997  .00002505  00000+0  35755-3 0  9999
2 64824  51.8994 131.3939 0006472 156.6263 203.4995 14.79933920 16814
KUIPER-00078            
1 64825U 25151K   25308.80144880 -.00005475  00000+0 -68818-3 0  9996
2 64825  51.8983 127.8345 0007260 219.0982 140.9456 14.79992703 16880
